     3.03           N: GNSS NAV DATA    M: Mixed            RINEX VERSION / TYPE
RTKCONV demo5 b33c                      20210328 204012 UTC PGM / RUN BY / DATE 
log: C:\data-RADARZ\20200410_unicamp\helicoidal\gnss_logge  COMMENT             
format: u-blox                                              COMMENT             
GPSA   1.0245E-08  1.4901E-08 -5.9605E-08 -1.1921E-07       IONOSPHERIC CORR    
GPSB   8.8064E+04  3.2768E+04 -1.9661E+05 -1.9661E+05       IONOSPHERIC CORR    
GAL    0.0000E+00  0.0000E+00  0.0000E+00  0.0000E+00       IONOSPHERIC CORR    
QZSA   0.0000E+00  0.0000E+00  0.0000E+00  0.0000E+00       IONOSPHERIC CORR    
QZSB   0.0000E+00  0.0000E+00  0.0000E+00  0.0000E+00       IONOSPHERIC CORR    
IRNA   0.0000E+00  0.0000E+00  0.0000E+00  0.0000E+00       IONOSPHERIC CORR    
IRNB   0.0000E+00  0.0000E+00  0.0000E+00  0.0000E+00       IONOSPHERIC CORR    
GPUT  0.0000000000E+00-7.993605777E-15 319488 2101          TIME SYSTEM CORR    
GAUT  0.0000000000E+00 0.000000000E+00      0    0          TIME SYSTEM CORR    
QZUT  0.0000000000E+00 0.000000000E+00      0    0          TIME SYSTEM CORR    
BDUT  0.0000000000E+00 0.000000000E+00      0    0          TIME SYSTEM CORR    
IRUT  0.0000000000E+00 0.000000000E+00      0    0          TIME SYSTEM CORR    
    18                                                      LEAP SECONDS        
                                                            END OF HEADER       
G 3 2020  4 13 16  0  0 -.144707038999E-03 -.109139364213E-10  .000000000000E+00
      .730000000000E+02 -.304375000000E+02  .424803409053E-08 -.299665026471E+01
     -.154227018356E-05  .271093018819E-02  .926665961742E-05  .515357662582E+04
      .144000000000E+06 -.745058059692E-08 -.141601207607E+01  .633299350739E-07
      .964993203383E+00  .203125000000E+03  .691567528209E+00 -.777710966212E-08
      .478234206089E-09  .100000000000E+01  .210100000000E+04  .000000000000E+00
      .200000000000E+01  .000000000000E+00  .186264514923E-08  .730000000000E+02
      .139656000000E+06  .400000000000E+01
G20 2020  4 13 16  0  0  .527811702341E-03  .000000000000E+00  .000000000000E+00
      .680000000000E+02 -.342187500000E+02  .493984862167E-08 -.249070244910E+01
     -.157393515110E-05  .504549313337E-02  .851042568684E-05  .515364048004E+04
      .144000000000E+06 -.447034835815E-07 -.154850888396E+01  .223517417908E-07
      .933238623717E+00  .201281250000E+03  .264459892067E+01 -.816498296146E-08
      .377158567311E-09  .100000000000E+01  .210100000000E+04  .000000000000E+00
      .200000000000E+01  .000000000000E+00 -.884756445885E-08  .680000000000E+02
      .139686000000E+06  .400000000000E+01
R14 2020  4 13 14 45  0  .501163303852E-04  .000000000000E+00  .139920000000E+06
      .234594707031E+05  .634383201599E+00  .186264514923E-08  .000000000000E+00
      .886562744141E+04  .144371032715E+00  .931322574615E-09 -.700000000000E+01
      .463651953125E+04 -.349160575867E+01  .186264514923E-08  .000000000000E+00
G 4 2020  4 13 16  0  0 -.756639055908E-04 -.511590769747E-11  .000000000000E+00
      .142000000000E+03 -.265625000000E+01  .475198365348E-08 -.785344069076E+00
     -.651925802231E-07  .672947498970E-03  .713206827641E-05  .515369136620E+04
      .144000000000E+06  .130385160446E-07 -.337140179927E+00  .186264514923E-07
      .960229431559E+00  .239406250000E+03 -.264413982626E+01 -.802712007606E-08
      .664313385605E-10  .100000000000E+01  .210100000000E+04  .000000000000E+00
      .200000000000E+01  .000000000000E+00 -.419095158577E-08  .398000000000E+03
      .140346000000E+06  .400000000000E+01
R19 2020  4 13 15 15  0 -.885026529431E-04 -.181898940355E-11  .140400000000E+06
      .165727851562E+05  .597640991211E+00  .000000000000E+00  .000000000000E+00
     -.180267153320E+05 -.811638832092E+00  .000000000000E+00  .300000000000E+01
     -.713722460938E+04  .343738555908E+01  .931322574615E-09  .000000000000E+00
R 5 2020  4 13 15 15  0  .485749915242E-04  .000000000000E+00  .140400000000E+06
      .209708447266E+04  .232227325439E+00 -.186264514923E-08  .000000000000E+00
     -.214866298828E+05  .185133171082E+01  .000000000000E+00  .100000000000E+01
     -.135556230469E+05 -.289705944061E+01  .931322574615E-09  .000000000000E+00
R 4 2020  4 13 15 15  0  .454671680927E-04  .909494701773E-12  .140400000000E+06
      .956832910156E+04  .603322982788E+00 -.931322574615E-09  .000000000000E+00
     -.644418164062E+04  .306132411957E+01  .000000000000E+00  .600000000000E+01
     -.227194418945E+05 -.613517761230E+00  .279396772385E-08  .000000000000E+00
R18 2020  4 13 15 15  0  .318922102451E-04  .909494701773E-12  .140400000000E+06
      .203077895508E+05 -.112019443512E+01  .186264514923E-08  .000000000000E+00
     -.121069609375E+05  .699642181396E+00  .931322574615E-09 -.300000000000E+01
      .950980712891E+04  .329330825806E+01  .000000000000E+00  .000000000000E+00
R20 2020  4 13 15 15  0 -.409059226513E-03 -.909494701773E-12  .140400000000E+06
      .130944775391E+04  .220966625214E+01 -.186264514923E-08  .000000000000E+00
     -.135853906250E+05 -.196669960022E+01  .000000000000E+00  .200000000000E+01
     -.215290493164E+05  .137940883636E+01  .931322574615E-09  .000000000000E+00
R 3 2020  4 13 15 15  0  .132452696562E-04  .000000000000E+00  .140400000000E+06
      .117712280273E+05  .615879058838E+00  .000000000000E+00  .000000000000E+00
      .123089975586E+05  .253298282623E+01  .000000000000E+00  .500000000000E+01
     -.189628525391E+05  .201719188690E+01  .279396772385E-08  .000000000000E+00
R14 2020  4 13 15 15  0  .501163303852E-04  .000000000000E+00  .140400000000E+06
      .238835732422E+05 -.181413650513E+00  .186264514923E-08  .000000000000E+00
      .876815380859E+04 -.216333389282E+00  .000000000000E+00 -.700000000000E+01
     -.174648095703E+04 -.355452919006E+01  .186264514923E-08  .000000000000E+00
R15 2020  4 13 15 15  0  .106332823634E-03  .000000000000E+00  .140550000000E+06
      .207624995117E+05  .196333217621E+01  .279396772385E-08  .000000000000E+00
     -.530402343750E+03  .519721031189E+00  .931322574615E-09  .000000000000E+00
      .148267993164E+05 -.273303604126E+01  .000000000000E+00  .000000000000E+00
